TRANSIT 16 [?]          
1 02807U 67048A   23013.78576073  .00000139  00000+0  20141-3 0  9997
2 02807  89.6579  29.2390 0018878 316.7260 217.2194 13.50352124739152
TRANSIT 17 [?]          
1 02965U 67092A   23014.17765282  .00000171  00000+0  23662-3 0  9994
2 02965  89.2338 107.1238 0049566  84.8188 297.8519 13.53063633727556
TRANSIT 18 [?]          
1 03133U 68012A   23014.17649118  .00000187  00000+0  26917-3 0  9997
2 03133  90.0113 271.7192 0075525  12.3611 139.9310 13.51191845702051
NNSS 19 [?]             
1 04507U 70067A   23014.59102355  .00000132  00000+0  17049-3 0  9995
2 04507  89.9322 237.8119 0173621 132.3698 229.2302 13.50870812579055
NNSS O-20 [?]           
1 06909U 73081A   23014.15809827  .00000311  00000+0  30940-3 0  9996
2 06909  89.8229 273.4581 0157367  26.5050 334.4052 13.70741666658158
TRANSAT [?]             
1 10457U 77106A   23013.72692174  .00000117  00000+0  17073-3 0  9994
2 10457  89.6755 115.6930 0025567  25.4576 128.3160 13.48704838224003
NOVA I [?]              
1 12458U 81044A   23014.21583987  .00000074  00000+0  15467-3 0  9996
2 12458  89.8841 105.3340 0015640 151.2698 237.3192 13.23087368 11497
NOVA 3 [?]              
1 15362U 84110A   23013.93586653  .00000058  00000+0  11671-3 0  9996
2 15362  90.1026  68.9997 0032475  25.5206 148.4628 13.22852957846337
OSCAR 30 [?]            
1 15935U 85066A   23013.91180691  .00000124  00000+0  20878-3 0  9996
2 15935  90.1800  81.5893 0168237 204.2198 329.5776 13.35786427822490
OSCAR 24 [?]            
1 15936U 85066B   23013.93433535  .00000121  00000+0  20474-3 0  9996
2 15936  90.1766  73.4960 0168608 210.0143 324.2313 13.35645377824415
POLAR BEAR [?]          
1 17070U 86088A   23014.12514531  .00000128  00000+0  12120-3 0  9996
2 17070  89.5724 228.0684 0041135  88.5025  23.8504 13.74903319813895
OSCAR 27 [?]            
1 18361U 87080A   23013.81826253  .00000112  00000+0  17174-3 0  9992
2 18361  90.3351  41.2643 0105268  32.2431 328.5095 13.44595855732585
OSCAR 29 [?]            
1 18362U 87080B   23013.87844921  .00000092  00000+0  13822-3 0  9994
2 18362  90.3366  41.6154 0107498  52.5370 122.1195 13.44181592732169
OSCAR 23 [?]            
1 19070U 88033A   23014.45090119  .00000090  00000+0  17009-3 0  9996
2 19070  90.3261 343.4842 0188004 257.0350 218.4009 13.27547192681719
OSCAR 32 [?]            
1 19071U 88033B   23013.86918311  .00000074  00000+0  13571-3 0  9996
2 19071  90.3263 343.5562 0186390 246.3195 139.9598 13.27725994681477
NOVA 11 [?]             
1 19223U 88052A   23014.13099052  .00000088  00000+0  18759-3 0  9997
2 19223  89.9768  80.3571 0032249  66.8372 321.5324 13.22765646669139
OSCAR 25 [?]            
1 19419U 88074A   23013.80443681  .00000127  00000+0  20305-3 0  9996
2 19419  90.0054  18.0264 0097609  42.0247 131.0026 13.42325041683651
OSCAR 31 [?]            
1 19420U 88074B   23013.93206520  .00000094  00000+0  14549-3 0  9997
2 19420  90.0065  18.2253 0095648  35.9058 332.5600 13.42332269683787
